start=new Date('2022-10-05T00:00:00.000Z').valueOf();
sats=[{"MEAN_MOTION_DDOT":"0.0000000000000","TIME_SYSTEM":"UTC","DECAY_DATE":null,"REV_AT_EPOCH":"130","SITE":"AFETR","OBJECT_TYPE":"PAYLOAD","TLE_LINE1":"1 53420U 22097AJ  22277.91667824 -.01098483  00000-0 -28693-1 0  9991","OBJECT_ID":"2022-097AJ","FILE":"3591597","MEAN_MOTION":"15.40920257","EPOCH":"2022-10-04T22:00:00.999936","GP_ID":"214194248","PERIOD":"93.451","BSTAR":"-0.02869300000000","COUNTRY_CODE":"US","NORAD_CAT_ID":"53420","ELEMENT_SET_NO":"999","SEMIMAJOR_AXIS":"6821.529","MEAN_ANOMALY":"136.0030","ECCENTRICITY":"0.00018380","REF_FRAME":"TEME","RA_OF_ASC_NODE":"335.0362","MEAN_MOTION_DOT":"-0.01098483","RCS_SIZE":"LARGE","OBJECT_NAME":"STARLINK-4552","TLE_LINE2":"2 53420  53.2178 335.0362 0001838  36.1794 136.0030 15.40920257  1306","CLASSIFICATION_TYPE":"U","PERIAPSIS":"442.140","INCLINATION":"53.2178","EPHEMERIS_TYPE":"0","LAUNCH_DATE":"2022-08-10","ARG_OF_PERICENTER":"36.1794","CENTER_NAME":"EARTH","MEAN_ELEMENT_THEORY":"SGP4","APOAPSIS":"444.648"},{"CENTER_NAME":"EARTH","APOAPSIS":"446.394","MEAN_ELEMENT_THEORY":"SGP4","LAUNCH_DATE":"2022-08-10","ARG_OF_PERICENTER":"33.3971","INCLINATION":"53.2178","PERIAPSIS":"443.836","CLASSIFICATION_TYPE":"U","EPHEMERIS_TYPE":"0","ECCENTRICITY":"0.00018740","REF_FRAME":"TEME","RCS_SIZE":"LARGE","OBJECT_NAME":"STARLINK-4545","MEAN_MOTION_DOT":"-0.01100621","RA_OF_ASC_NODE":"335.0178","TLE_LINE2":"2 53421  53.2178 335.0178 0001874  33.3971 128.1377 15.40337343  1302","PERIOD":"93.486","COUNTRY_CODE":"US","NORAD_CAT_ID":"53421","BSTAR":"-0.02931800000000","ELEMENT_SET_NO":"999","SEMIMAJOR_AXIS":"6823.250","MEAN_ANOMALY":"128.1377","MEAN_MOTION":"15.40337343","GP_ID":"214194828","EPOCH":"2022-10-04T22:00:00.999936","OBJECT_ID":"2022-097AK","TLE_LINE1":"1 53421U 22097AK  22277.91667824 -.01100621  00000-0 -29318-1 0  9995","FILE":"3591597","TIME_SYSTEM":"UTC","DECAY_DATE":null,"MEAN_MOTION_DDOT":"0.0000000000000","REV_AT_EPOCH":"130","SITE":"AFETR","OBJECT_TYPE":"PAYLOAD"},{"LAUNCH_DATE":"2022-08-10","ARG_OF_PERICENTER":"46.1987","CENTER_NAME":"EARTH","MEAN_ELEMENT_THEORY":"SGP4","APOAPSIS":"442.720","ECCENTRICITY":"0.00015890","REF_FRAME":"TEME","RCS_SIZE":"LARGE","MEAN_MOTION_DOT":"-0.01105867","OBJECT_NAME":"STARLINK-4546","RA_OF_ASC_NODE":"335.0548","TLE_LINE2":"2 53422  53.2179 335.0548 0001589  46.1987 135.7855 15.41516090  1301","PERIAPSIS":"440.552","INCLINATION":"53.2179","CLASSIFICATION_TYPE":"U","EPHEMERIS_TYPE":"0","MEAN_MOTION":"15.41516090","EPOCH":"2022-10-04T22:00:00.999936","GP_ID":"214194083","PERIOD":"93.415","COUNTRY_CODE":"US","ELEMENT_SET_NO":"999","BSTAR":"-0.02833400000000","NORAD_CAT_ID":"53422","SEMIMAJOR_AXIS":"6819.771","MEAN_ANOMALY":"135.7855","DECAY_DATE":null,"TIME_SYSTEM":"UTC","MEAN_MOTION_DDOT":"0.0000000000000","REV_AT_EPOCH":"130","SITE":"AFETR","OBJECT_TYPE":"PAYLOAD","OBJECT_ID":"2022-097AL","TLE_LINE1":"1 53422U 22097AL  22277.91667824 -.01105867  00000-0 -28334-1 0  9990","FILE":"3591597"},{"SEMIMAJOR_AXIS":"6822.447","MEAN_ANOMALY":"135.5925","PERIOD":"93.470","COUNTRY_CODE":"US","NORAD_CAT_ID":"53423","BSTAR":"-0.02813100000000","ELEMENT_SET_NO":"999","GP_ID":"214194415","EPOCH":"2022-10-04T22:00:00.999936","MEAN_MOTION":"15.40609251","TLE_LINE1":"1 53423U 22097AM  22277.91667824 -.01068487  00000-0 -28131-1 0  9992","OBJECT_ID":"2022-097AM","FILE":"3591597","SITE":"AFETR","OBJECT_TYPE":"PAYLOAD","MEAN_MOTION_DDOT":"0.0000000000000","DECAY_DATE":null,"TIME_SYSTEM":"UTC","REV_AT_EPOCH":"130","CENTER_NAME":"EARTH","MEAN_ELEMENT_THEORY":"SGP4","APOAPSIS":"445.694","LAUNCH_DATE":"2022-08-10","ARG_OF_PERICENTER":"31.1966","EPHEMERIS_TYPE":"0","CLASSIFICATION_TYPE":"U","INCLINATION":"53.2176","PERIAPSIS":"442.931","RA_OF_ASC_NODE":"335.0284","RCS_SIZE":"LARGE","MEAN_MOTION_DOT":"-0.01068487","OBJECT_NAME":"STARLINK-4539","TLE_LINE2":"2 53423  53.2176 335.0284 0002025  31.1966 135.5925 15.40609251  1300","ECCENTRICITY":"0.00020250","REF_FRAME":"TEME"},{"APOAPSIS":"441.096","MEAN_ELEMENT_THEORY":"SGP4","CENTER_NAME":"EARTH","ARG_OF_PERICENTER":"44.7117","LAUNCH_DATE":"2022-08-10","CLASSIFICATION_TYPE":"U","PERIAPSIS":"438.850","INCLINATION":"53.2177","EPHEMERIS_TYPE":"0","REF_FRAME":"TEME","ECCENTRICITY":"0.00016470","TLE_LINE2":"2 53424  53.2177 335.0744 0001647  44.7117 146.5382 15.42080211  1300","RA_OF_ASC_NODE":"335.0744","OBJECT_NAME":"STARLINK-4532","RCS_SIZE":"LARGE","MEAN_MOTION_DOT":"-0.01069784","BSTAR":"-0.02681600000000","COUNTRY_CODE":"US","ELEMENT_SET_NO":"999","NORAD_CAT_ID":"53424","PERIOD":"93.380","SEMIMAJOR_AXIS":"6818.108","MEAN_ANOMALY":"146.5382","MEAN_MOTION":"15.42080211","GP_ID":"214193831","EPOCH":"2022-10-04T22:00:00.999936","FILE":"3591597","TLE_LINE1":"1 53424U 22097AN  22277.91667824 -.01069784  00000-0 -26816-1 0  9992","OBJECT_ID":"2022-097AN","REV_AT_EPOCH":"130","MEAN_MOTION_DDOT":"0.0000000000000","TIME_SYSTEM":"UTC","DECAY_DATE":null,"OBJECT_TYPE":"PAYLOAD","SITE":"AFETR"},{"OBJECT_TYPE":"PAYLOAD","SITE":"AFETR","REV_AT_EPOCH":"130","DECAY_DATE":null,"TIME_SYSTEM":"UTC","MEAN_MOTION_DDOT":"0.0000000000000","FILE":"3591597","OBJECT_ID":"2022-097AP","TLE_LINE1":"1 53425U 22097AP  22277.91667824 -.01069075  00000-0 -27606-1 0  9994","EPOCH":"2022-10-04T22:00:00.999936","GP_ID":"214194582","MEAN_MOTION":"15.41194172","SEMIMAJOR_AXIS":"6820.721","MEAN_ANOMALY":"130.5808","COUNTRY_CODE":"US","ELEMENT_SET_NO":"999","BSTAR":"-0.02760600000000","NORAD_CAT_ID":"53425","PERIOD":"93.434","TLE_LINE2":"2 53425  53.2177 335.0466 0001609  46.5822 130.5808 15.41194172  1300","RCS_SIZE":"LARGE","MEAN_MOTION_DOT":"-0.01069075","OBJECT_NAME":"STARLINK-4531","RA_OF_ASC_NODE":"335.0466","REF_FRAME":"TEME","ECCENTRICITY":"0.00016090","EPHEMERIS_TYPE":"0","PERIAPSIS":"441.488","INCLINATION":"53.2177","CLASSIFICATION_TYPE":"U","ARG_OF_PERICENTER":"46.5822","LAUNCH_DATE":"2022-08-10","MEAN_ELEMENT_THEORY":"SGP4","APOAPSIS":"443.683","CENTER_NAME":"EARTH"},{"REF_FRAME":"TEME","ECCENTRICITY":"0.00038310","TLE_LINE2":"2 53426  53.2169 332.2813 0003831   1.6468  63.4308 15.73166874  1306","RA_OF_ASC_NODE":"332.2813","OBJECT_NAME":"STARLINK-4558","RCS_SIZE":"LARGE","MEAN_MOTION_DOT":"0.00026552","CLASSIFICATION_TYPE":"U","INCLINATION":"53.2169","PERIAPSIS":"347.277","EPHEMERIS_TYPE":"0","ARG_OF_PERICENTER":"1.6468","LAUNCH_DATE":"2022-08-10","MEAN_ELEMENT_THEORY":"SGP4","APOAPSIS":"352.432","CENTER_NAME":"EARTH","REV_AT_EPOCH":"130","MEAN_MOTION_DDOT":"0.0000000000000","TIME_SYSTEM":"UTC","DECAY_DATE":null,"OBJECT_TYPE":"PAYLOAD","SITE":"AFETR","FILE":"3591597","TLE_LINE1":"1 53426U 22097AQ  22277.91667824  .00026552  00000-0  19323-3 0  9994","OBJECT_ID":"2022-097AQ","MEAN_MOTION":"15.73166874","GP_ID":"214193665","EPOCH":"2022-10-04T22:00:00.999936","COUNTRY_CODE":"US","ELEMENT_SET_NO":"999","BSTAR":"0.00019323000000","NORAD_CAT_ID":"53426","PERIOD":"91.535","MEAN_ANOMALY":"63.4308","SEMIMAJOR_AXIS":"6727.990"},{"MEAN_MOTION":"15.41784869","EPOCH":"2022-10-04T22:00:00.999936","GP_ID":"214194663","PERIOD":"93.398","BSTAR":"-0.02707700000000","COUNTRY_CODE":"US","ELEMENT_SET_NO":"999","NORAD_CAT_ID":"53427","MEAN_ANOMALY":"139.5733","SEMIMAJOR_AXIS":"6818.979","MEAN_MOTION_DDOT":"0.0000000000000","TIME_SYSTEM":"UTC","DECAY_DATE":null,"REV_AT_EPOCH":"130","SITE":"AFETR","OBJECT_TYPE":"PAYLOAD","TLE_LINE1":"1 53427U 22097AR  22277.91667824 -.01069528  00000-0 -27077-1 0  9991","OBJECT_ID":"2022-097AR","FILE":"3591597","LAUNCH_DATE":"2022-08-10","ARG_OF_PERICENTER":"47.1188","CENTER_NAME":"EARTH","MEAN_ELEMENT_THEORY":"SGP4","APOAPSIS":"441.935","ECCENTRICITY":"0.00016010","REF_FRAME":"TEME","RA_OF_ASC_NODE":"335.0651","MEAN_MOTION_DOT":"-0.01069528","RCS_SIZE":"LARGE","OBJECT_NAME":"STARLINK-4541","TLE_LINE2":"2 53427  53.2177 335.0651 0001601  47.1188 139.5733 15.41784869  1306","CLASSIFICATION_TYPE":"U","PERIAPSIS":"439.752","INCLINATION":"53.2177","EPHEMERIS_TYPE":"0"},{"EPHEMERIS_TYPE":"0","CLASSIFICATION_TYPE":"U","INCLINATION":"53.2168","PERIAPSIS":"347.314","RA_OF_ASC_NODE":"332.2799","RCS_SIZE":"LARGE","OBJECT_NAME":"STARLINK-4540","MEAN_MOTION_DOT":"0.00013656","TLE_LINE2":"2 53428  53.2168 332.2799 0003693   4.6301  62.2366 15.73186496  1308","ECCENTRICITY":"0.00036930","REF_FRAME":"TEME","CENTER_NAME":"EARTH","MEAN_ELEMENT_THEORY":"SGP4","APOAPSIS":"352.283","LAUNCH_DATE":"2022-08-10","ARG_OF_PERICENTER":"4.6301","TLE_LINE1":"1 53428U 22097AS  22277.91667824  .00013656  00000-0  10161-3 0  9998","OBJECT_ID":"2022-097AS","FILE":"3591597","SITE":"AFETR","OBJECT_TYPE":"PAYLOAD","MEAN_MOTION_DDOT":"0.0000000000000","TIME_SYSTEM":"UTC","DECAY_DATE":null,"REV_AT_EPOCH":"130","SEMIMAJOR_AXIS":"6727.934","MEAN_ANOMALY":"62.2366","PERIOD":"91.534","NORAD_CAT_ID":"53428","COUNTRY_CODE":"US","BSTAR":"0.00010161000000","ELEMENT_SET_NO":"999","EPOCH":"2022-10-04T22:00:00.999936","GP_ID":"214194249","MEAN_MOTION":"15.73186496"},{"RCS_SIZE":"LARGE","OBJECT_NAME":"STARLINK-4543","MEAN_MOTION_DOT":"-0.00058064","RA_OF_ASC_NODE":"332.2806","TLE_LINE2":"2 53429  53.2167 332.2806 0003560   3.2790  63.0506 15.73182391  1302","ECCENTRICITY":"0.00035600","REF_FRAME":"TEME","EPHEMERIS_TYPE":"0","PERIAPSIS":"347.415","INCLINATION":"53.2167","CLASSIFICATION_TYPE":"U","LAUNCH_DATE":"2022-08-10","ARG_OF_PERICENTER":"3.2790","CENTER_NAME":"EARTH","APOAPSIS":"352.206","MEAN_ELEMENT_THEORY":"SGP4","SITE":"AFETR","OBJECT_TYPE":"PAYLOAD","DECAY_DATE":null,"TIME_SYSTEM":"UTC","MEAN_MOTION_DDOT":"0.0000000000000","REV_AT_EPOCH":"130","OBJECT_ID":"2022-097AT","TLE_LINE1":"1 53429U 22097AT  22277.91667824 -.00058064  00000-0 -41227-3 0  9990","FILE":"3591597","EPOCH":"2022-10-04T22:00:00.999936","GP_ID":"214194829","MEAN_MOTION":"15.73182391","MEAN_ANOMALY":"63.0506","SEMIMAJOR_AXIS":"6727.945","PERIOD":"91.534","COUNTRY_CODE":"US","NORAD_CAT_ID":"53429","BSTAR":"-0.00041227000000","ELEMENT_SET_NO":"999"}];
